*******************************************************************************
Ephemeris / WWW_USER Mon Mar 24 06:39:07 2025 Pasadena, USA      / Horizons    
*******************************************************************************
Target body name: (2018 RC)                       {source: JPL#21}
Center body name: Earth (399)                     {source: DE441}
Center-site name: Gemini South Obs., Cerro Pachon
*******************************************************************************
Start time      : A.D. 2018-Sep-27 22:50:00.0000 UT      
Stop  time      : A.D. 2018-Sep-28 10:16:00.0000 UT      
Step-size       : 1 minutes
*******************************************************************************
Target pole/equ : undefined
Target radii    : undefined                                                    
Center geodetic : 289.2634, -30.2406227, 2.71233  {E-lon(deg),Lat(deg),Alt(km)}
Center cylindric: 289.2634,5517.21435,-3194.81213 {E-lon(deg),Dxy(km),Dz(km)}
Center pole/equ : ITRF93                          {East-longitude positive}
Center radii    : 6378.137, 6378.137, 6356.752 km {Equator_a, b, pole_c}       
Target primary  : Sun
Vis. interferer : MOON (R_eq= 1737.400) km        {source: DE441}
Rel. light bend : Sun                             {source: DE441}
Rel. lght bnd GM: 1.3271E+11 km^3/s^2                                          
Small-body perts: Yes                             {source: SB441-N16}
Atmos refraction: NO (AIRLESS)
RA format       : HMS
Time format     : CAL 
Calendar mode   : Mixed Julian/Gregorian
RTS-only print  : NO       
EOP file        : eop.250321.p250617                                           
EOP coverage    : DATA-BASED 1962-JAN-20 TO 2025-MAR-21. PREDICTS-> 2025-JUN-16
Units conversion: 1 au= 149597870.700 km, c= 299792.458 km/s, 1 day= 86400.0 s 
Table cut-offs 1: Elevation (-90.0deg=NO ),Airmass (>38.000=NO), Daylight (YES)
Table cut-offs 2: Solar elongation (  0.0,180.0=NO ),Local Hour Angle( 0.0=NO )
Table cut-offs 3: RA/DEC angular rate (     0.0=NO )                           
*******************************************************************************
Initial IAU76/J2000 heliocentric ecliptic osculating elements (au, days, deg.):
  EPOCH=  2458369.5 ! 2018-Sep-08.00 (TDB)         Residual RMS= .84866        
   EC= .2426621660028976   QR= .647471518312811    TP= 2458473.8617576878      
   OM= 346.8893436915528   W=  145.8737085184167   IN= 1.612045057594462       
  Equivalent ICRF heliocentric cartesian coordinates (au, au/d):
   X= 9.781363708094483E-01  Y=-2.377942828764822E-01  Z=-1.040448782093900E-01
  VX= 1.501011538102481E-03 VY= 1.393070215815854E-02 VZ= 6.509326736836346E-03
Asteroid physical parameters (km, seconds, rotational period in hours):        
   GM= n.a.                RAD= n.a.               ROTPER= .16548              
   H= 24.93                G= .150                 B-V= n.a.                   
                           ALBEDO= n.a.            STYP= n.a.                  
*******************************************************************************
 Date__(UT)__HR:MN     R.A._________(ICRF)_________DEC
******************************************************
$$SOE
 2018-Sep-28 02:56  m  13 17 01.900995 +01 26 07.03663
 2018-Sep-28 02:57  m  13 17 01.901010 +01 26 07.12160
 2018-Sep-28 02:58  m  13 17 01.901135 +01 26 07.20661
 2018-Sep-28 02:59  m  13 17 01.901368 +01 26 07.29166
 2018-Sep-28 03:00  m  13 17 01.901710 +01 26 07.37673
 2018-Sep-28 03:01  m  13 17 01.902159 +01 26 07.46185
 2018-Sep-28 03:02  m  13 17 01.902716 +01 26 07.54699
 2018-Sep-28 03:03  m  13 17 01.903378 +01 26 07.63217
 2018-Sep-28 03:04  m  13 17 01.904146 +01 26 07.71739
 2018-Sep-28 03:05  m  13 17 01.905020 +01 26 07.80264
 2018-Sep-28 03:06  m  13 17 01.905998 +01 26 07.88793
 2018-Sep-28 03:07  m  13 17 01.907080 +01 26 07.97325
 2018-Sep-28 03:08  m  13 17 01.908265 +01 26 08.05861
 2018-Sep-28 03:09  m  13 17 01.909552 +01 26 08.14400
 2018-Sep-28 03:10  m  13 17 01.910942 +01 26 08.22943
 2018-Sep-28 03:11  m  13 17 01.912433 +01 26 08.31490
 2018-Sep-28 03:12  m  13 17 01.914025 +01 26 08.40040
 2018-Sep-28 03:13  m  13 17 01.915716 +01 26 08.48594
 2018-Sep-28 03:14  m  13 17 01.917508 +01 26 08.57151
 2018-Sep-28 03:15  m  13 17 01.919397 +01 26 08.65713
 2018-Sep-28 03:16  m  13 17 01.921386 +01 26 08.74278
 2018-Sep-28 03:17  m  13 17 01.923471 +01 26 08.82846
 2018-Sep-28 03:18  m  13 17 01.925653 +01 26 08.91418
 2018-Sep-28 03:19  m  13 17 01.927932 +01 26 08.99994
 2018-Sep-28 03:20  m  13 17 01.930306 +01 26 09.08574
 2018-Sep-28 03:21  m  13 17 01.932775 +01 26 09.17158
 2018-Sep-28 03:22  m  13 17 01.935338 +01 26 09.25745
 2018-Sep-28 03:23  m  13 17 01.937995 +01 26 09.34336
 2018-Sep-28 03:24  m  13 17 01.940745 +01 26 09.42931
 2018-Sep-28 03:25  m  13 17 01.943587 +01 26 09.51530
 2018-Sep-28 03:26  m  13 17 01.946521 +01 26 09.60133
 2018-Sep-28 03:27  m  13 17 01.949545 +01 26 09.68739
 2018-Sep-28 03:28  m  13 17 01.952660 +01 26 09.77349
 2018-Sep-28 03:29  m  13 17 01.955864 +01 26 09.85964
 2018-Sep-28 03:30  m  13 17 01.959158 +01 26 09.94582
 2018-Sep-28 03:31  m  13 17 01.962539 +01 26 10.03204
 2018-Sep-28 03:32  m  13 17 01.966009 +01 26 10.11830
 2018-Sep-28 03:33  m  13 17 01.969565 +01 26 10.20460
 2018-Sep-28 03:34  m  13 17 01.973207 +01 26 10.29093
 2018-Sep-28 03:35  m  13 17 01.976935 +01 26 10.37731
 2018-Sep-28 03:36  m  13 17 01.980748 +01 26 10.46373
 2018-Sep-28 03:37  m  13 17 01.984645 +01 26 10.55019
 2018-Sep-28 03:38  m  13 17 01.988626 +01 26 10.63669
 2018-Sep-28 03:39  m  13 17 01.992689 +01 26 10.72323
 2018-Sep-28 03:40  m  13 17 01.996835 +01 26 10.80980
 2018-Sep-28 03:41  m  13 17 02.001062 +01 26 10.89642
 2018-Sep-28 03:42  m  13 17 02.005370 +01 26 10.98308
 2018-Sep-28 03:43  m  13 17 02.009758 +01 26 11.06978
 2018-Sep-28 03:44  m  13 17 02.014226 +01 26 11.15653
 2018-Sep-28 03:45  m  13 17 02.018772 +01 26 11.24331
 2018-Sep-28 03:46  m  13 17 02.023396 +01 26 11.33013
 2018-Sep-28 03:47  m  13 17 02.028098 +01 26 11.41700
 2018-Sep-28 03:48  m  13 17 02.032876 +01 26 11.50390
 2018-Sep-28 03:49  m  13 17 02.037730 +01 26 11.59085
 2018-Sep-28 03:50  m  13 17 02.042660 +01 26 11.67784
 2018-Sep-28 03:51  m  13 17 02.047664 +01 26 11.76487
 2018-Sep-28 03:52  m  13 17 02.052742 +01 26 11.85194
 2018-Sep-28 03:53  m  13 17 02.057893 +01 26 11.93906
 2018-Sep-28 03:54  m  13 17 02.063117 +01 26 12.02622
 2018-Sep-28 03:55  m  13 17 02.068412 +01 26 12.11342
 2018-Sep-28 03:56  m  13 17 02.073778 +01 26 12.20066
 2018-Sep-28 03:57  m  13 17 02.079215 +01 26 12.28794
 2018-Sep-28 03:58  m  13 17 02.084721 +01 26 12.37527
 2018-Sep-28 03:59  m  13 17 02.090296 +01 26 12.46264
 2018-Sep-28 04:00  m  13 17 02.095940 +01 26 12.55005
 2018-Sep-28 04:01  m  13 17 02.101650 +01 26 12.63750
 2018-Sep-28 04:02  m  13 17 02.107428 +01 26 12.72500
 2018-Sep-28 04:03  m  13 17 02.113272 +01 26 12.81254
 2018-Sep-28 04:04  m  13 17 02.119181 +01 26 12.90013
 2018-Sep-28 04:05  m  13 17 02.125155 +01 26 12.98776
 2018-Sep-28 04:06  m  13 17 02.131192 +01 26 13.07543
 2018-Sep-28 04:07  m  13 17 02.137293 +01 26 13.16314
 2018-Sep-28 04:08  m  13 17 02.143457 +01 26 13.25090
 2018-Sep-28 04:09  m  13 17 02.149682 +01 26 13.33870
 2018-Sep-28 04:10  m  13 17 02.155968 +01 26 13.42655
 2018-Sep-28 04:11  m  13 17 02.162314 +01 26 13.51444
 2018-Sep-28 04:12  m  13 17 02.168720 +01 26 13.60237
 2018-Sep-28 04:13  m  13 17 02.175185 +01 26 13.69035
 2018-Sep-28 04:14  m  13 17 02.181708 +01 26 13.77838
 2018-Sep-28 04:15  m  13 17 02.188289 +01 26 13.86644
 2018-Sep-28 04:16  m  13 17 02.194926 +01 26 13.95455
 2018-Sep-28 04:17  m  13 17 02.201619 +01 26 14.04271
 2018-Sep-28 04:18  m  13 17 02.208367 +01 26 14.13091
 2018-Sep-28 04:19  m  13 17 02.215170 +01 26 14.21916
 2018-Sep-28 04:20  m  13 17 02.222026 +01 26 14.30745
 2018-Sep-28 04:21  m  13 17 02.228936 +01 26 14.39578
 2018-Sep-28 04:22  m  13 17 02.235898 +01 26 14.48416
 2018-Sep-28 04:23  m  13 17 02.242911 +01 26 14.57259
 2018-Sep-28 04:24  m  13 17 02.249975 +01 26 14.66106
 2018-Sep-28 04:25  m  13 17 02.257089 +01 26 14.74957
 2018-Sep-28 04:26  m  13 17 02.264253 +01 26 14.83813
 2018-Sep-28 04:27  m  13 17 02.271465 +01 26 14.92674
 2018-Sep-28 04:28  m  13 17 02.278725 +01 26 15.01539
 2018-Sep-28 04:29  m  13 17 02.286032 +01 26 15.10409
 2018-Sep-28 04:30  m  13 17 02.293386 +01 26 15.19283
 2018-Sep-28 04:31  m  13 17 02.300785 +01 26 15.28162
 2018-Sep-28 04:32  m  13 17 02.308229 +01 26 15.37045
 2018-Sep-28 04:33  m  13 17 02.315717 +01 26 15.45933
 2018-Sep-28 04:34  m  13 17 02.323249 +01 26 15.54826
 2018-Sep-28 04:35  m  13 17 02.330823 +01 26 15.63723
 2018-Sep-28 04:36  m  13 17 02.338439 +01 26 15.72625
 2018-Sep-28 04:37  m  13 17 02.346097 +01 26 15.81531
 2018-Sep-28 04:38  m  13 17 02.353794 +01 26 15.90443
 2018-Sep-28 04:39  m  13 17 02.361532 +01 26 15.99358
 2018-Sep-28 04:40  m  13 17 02.369308 +01 26 16.08279
 2018-Sep-28 04:41  m  13 17 02.377123 +01 26 16.17204
 2018-Sep-28 04:42  m  13 17 02.384975 +01 26 16.26133
 2018-Sep-28 04:43  m  13 17 02.392863 +01 26 16.35068
 2018-Sep-28 04:44  m  13 17 02.400788 +01 26 16.44007
 2018-Sep-28 04:45  m  13 17 02.408747 +01 26 16.52950
 2018-Sep-28 04:46  m  13 17 02.416741 +01 26 16.61898
 2018-Sep-28 04:47  m  13 17 02.424769 +01 26 16.70851
 2018-Sep-28 04:48  m  13 17 02.432830 +01 26 16.79809
 2018-Sep-28 04:49  m  13 17 02.440923 +01 26 16.88771
 2018-Sep-28 04:50  m  13 17 02.449047 +01 26 16.97739
 2018-Sep-28 04:51  m  13 17 02.457202 +01 26 17.06710
 2018-Sep-28 04:52  m  13 17 02.465386 +01 26 17.15687
 2018-Sep-28 04:53  m  13 17 02.473600 +01 26 17.24668
 2018-Sep-28 04:54  m  13 17 02.481843 +01 26 17.33654
 2018-Sep-28 04:55  m  13 17 02.490112 +01 26 17.42645
 2018-Sep-28 04:56  m  13 17 02.498409 +01 26 17.51640
 2018-Sep-28 04:57  m  13 17 02.506732 +01 26 17.60640
 2018-Sep-28 04:58  m  13 17 02.515080 +01 26 17.69645
